{
  "type": "FeatureCollection",
  "features": [
    {
      "type": "Feature",
      "properties": {
        "norad_id": 66725,
        "name": "FLOCK 4H-22",
        "group": "last-30-days",
        "lat": -11.60659275533422,
        "lon": -109.8626053612499,
        "alt_km": 517.5794155342683,
        "timestamp": "2025-12-26T03:50:10.806908+00:00",
        "meta_object_name": "FLOCK 4H-22",
        "meta_object_id": "2025-276BM",
        "meta_epoch": "2025-12-25T19:04:54.931008",
        "meta_mean_motion": 15.17528102,
        "meta_eccentricity": 0.000146,
        "meta_inclination": 97.4371,
        "meta_ra_of_asc_node": 71.3166,
        "meta_arg_of_pericenter": 272.3632,
        "meta_mean_anomaly": 87.7435,
        "meta_ephemeris_type": 0,
        "meta_classification_type": "U",
        "meta_norad_cat_id": 66725,
        "meta_element_set_no": 999,
        "meta_rev_at_epoch": 410,
        "meta_bstar": 0.00030597,
        "meta_mean_motion_dot": 6.072e-05,
        "meta_mean_motion_ddot": 0,
        "tle_line1": "1 66725U 25276BM  25359.79508022  .00006072  00000+0  30597-3 0  9996",
        "tle_line2": "2 66725  97.4371  71.3166 0001460 272.3632  87.7435 15.17528102  4100"
      },
      "geometry": {
        "type": "Point",
        "coordinates": [
          -109.8626053612499,
          -11.60659275533422
        ]
      }
    },
    {
      "type": "Feature",
      "properties": {
        "norad_id": 66726,
        "name": "FLOCK 4H-23",
        "group": "last-30-days",
        "lat": 10.974437822159329,
        "lon": -106.85496276978901,
        "alt_km": 514.4068807630683,
        "timestamp": "2025-12-26T03:50:10.806920+00:00",
        "meta_object_name": "FLOCK 4H-23",
        "meta_object_id": "2025-276BN",
        "meta_epoch": "2025-12-25T19:10:49.247040",
        "meta_mean_motion": 15.17257752,
        "meta_eccentricity": 0.0003506,
        "meta_inclination": 97.4437,
        "meta_ra_of_asc_node": 71.3379,
        "meta_arg_of_pericenter": 228.7394,
        "meta_mean_anomaly": 131.3538,
        "meta_ephemeris_type": 0,
        "meta_classification_type": "U",
        "meta_norad_cat_id": 66726,
        "meta_element_set_no": 999,
        "meta_rev_at_epoch": 410,
        "meta_bstar": 0.00033086,
        "meta_mean_motion_dot": 6.521e-05,
        "meta_mean_motion_ddot": 0,
        "tle_line1": "1 66726U 25276BN  25359.79918110  .00006521  00000+0  33086-3 0  9995",
        "tle_line2": "2 66726  97.4437  71.3379 0003506 228.7394 131.3538 15.17257752  4103"
      },
      "geometry": {
        "type": "Point",
        "coordinates": [
          -106.85496276978901,
          10.974437822159329
        ]
      }
    },
    {
      "type": "Feature",
      "properties": {
        "norad_id": 66727,
        "name": "FLOCK 4H-24",
        "group": "last-30-days",
        "lat": 0.6642640206264069,
        "lon": -108.21432782697441,
        "alt_km": 516.0286749761644,
        "timestamp": "2025-12-26T03:50:10.806930+00:00",
        "meta_object_name": "FLOCK 4H-24",
        "meta_object_id": "2025-276BP",
        "meta_epoch": "2025-12-25T17:33:09.199872",
        "meta_mean_motion": 15.1736122,
        "meta_eccentricity": 0.0002884,
        "meta_inclination": 97.4435,
        "meta_ra_of_asc_node": 71.2778,
        "meta_arg_of_pericenter": 247.8142,
        "meta_mean_anomaly": 112.2785,
        "meta_ephemeris_type": 0,
        "meta_classification_type": "U",
        "meta_norad_cat_id": 66727,
        "meta_element_set_no": 999,
        "meta_rev_at_epoch": 409,
        "meta_bstar": 0.00030268,
        "meta_mean_motion_dot": 5.977e-05,
        "meta_mean_motion_ddot": 0,
        "tle_line1": "1 66727U 25276BP  25359.73135648  .00005977  00000+0  30268-3 0  9990",
        "tle_line2": "2 66727  97.4435  71.2778 0002884 247.8142 112.2785 15.17361220  4091"
      },
      "geometry": {
        "type": "Point",
        "coordinates": [
          -108.21432782697441,
          0.6642640206264069
        ]
      }
    },
    {
      "type": "Feature",
      "properties": {
        "norad_id": 66728,
        "name": "FLOCK 4H-25",
        "group": "last-30-days",
        "lat": -81.8620612857954,
        "lon": -174.31218437653337,
        "alt_km": 519.5696326169418,
        "timestamp": "2025-12-26T03:50:10.806940+00:00",
        "meta_object_name": "FLOCK 4H-25",
        "meta_object_id": "2025-276BQ",
        "meta_epoch": "2025-12-25T17:10:28.320384",
        "meta_mean_motion": 15.18247547,
        "meta_eccentricity": 0.0001753,
        "meta_inclination": 97.4392,
        "meta_ra_of_asc_node": 71.2806,
        "meta_arg_of_pericenter": 114.9526,
        "meta_mean_anomaly": 245.189,
        "meta_ephemeris_type": 0,
        "meta_classification_type": "U",
        "meta_norad_cat_id": 66728,
        "meta_element_set_no": 999,
        "meta_rev_at_epoch": 337,
        "meta_bstar": 0.00028641,
        "meta_mean_motion_dot": 5.798e-05,
        "meta_mean_motion_ddot": 0,
        "tle_line1": "1 66728U 25276BQ  25359.71560556  .00005798  00000+0  28641-3 0  9992",
        "tle_line2": "2 66728  97.4392  71.2806 0001753 114.9526 245.1890 15.18247547  3379"
      },
      "geometry": {
        "type": "Point",
        "coordinates": [
          -174.31218437653337,
          -81.8620612857954
        ]
      }
    },
    {
      "type": "Feature",
      "properties": {
        "norad_id": 66729,
        "name": "FLOCK 4H-26",
        "group": "last-30-days",
        "lat": 19.91100321957258,
        "lon": -105.61637381520376,
        "alt_km": 514.322158585599,
        "timestamp": "2025-12-26T03:50:10.806952+00:00",
        "meta_object_name": "FLOCK 4H-26",
        "meta_object_id": "2025-276BR",
        "meta_epoch": "2025-12-25T19:13:10.238016",
        "meta_mean_motion": 15.1718911,
        "meta_eccentricity": 0.0003672,
        "meta_inclination": 97.4388,
        "meta_ra_of_asc_node": 71.3186,
        "meta_arg_of_pericenter": 247.3023,
        "meta_mean_anomaly": 112.7822,
        "meta_ephemeris_type": 0,
        "meta_classification_type": "U",
        "meta_norad_cat_id": 66729,
        "meta_element_set_no": 999,
        "meta_rev_at_epoch": 410,
        "meta_bstar": 0.00047189,
        "meta_mean_motion_dot": 9.314e-05,
        "meta_mean_motion_ddot": 0,
        "tle_line1": "1 66729U 25276BR  25359.80081294  .00009314  00000+0  47189-3 0  9996",
        "tle_line2": "2 66729  97.4388  71.3186 0003672 247.3023 112.7822 15.17189110  4108"
      },
      "geometry": {
        "type": "Point",
        "coordinates": [
          -105.61637381520376,
          19.91100321957258
        ]
      }
    },
    {
      "type": "Feature",
      "properties": {
        "norad_id": 66730,
        "name": "FLOCK 4H-27",
        "group": "last-30-days",
        "lat": -71.97404794698859,
        "lon": -131.9616976410932,
        "alt_km": 519.4141076307969,
        "timestamp": "2025-12-26T03:50:10.806962+00:00",
        "meta_object_name": "FLOCK 4H-27",
        "meta_object_id": "2025-276BS",
        "meta_epoch": "2025-12-25T18:48:48.698208",
        "meta_mean_motion": 15.1811885,
        "meta_eccentricity": 0.0001379,
        "meta_inclination": 97.4366,
        "meta_ra_of_asc_node": 71.3334,
        "meta_arg_of_pericenter": 126.8131,
        "meta_mean_anomaly": 233.3229,
        "meta_ephemeris_type": 0,
        "meta_classification_type": "U",
        "meta_norad_cat_id": 66730,
        "meta_element_set_no": 999,
        "meta_rev_at_epoch": 410,
        "meta_bstar": 0.00033943,
        "meta_mean_motion_dot": 6.859e-05,
        "meta_mean_motion_ddot": 0,
        "tle_line1": "1 66730U 25276BS  25359.78389697  .00006859  00000+0  33943-3 0  9997",
        "tle_line2": "2 66730  97.4366  71.3334 0001379 126.8131 233.3229 15.18118850  4109"
      },
      "geometry": {
        "type": "Point",
        "coordinates": [
          -131.9616976410932,
          -71.97404794698859
        ]
      }
    },
    {
      "type": "Feature",
      "properties": {
        "norad_id": 66731,
        "name": "FLOCK 4H-28",
        "group": "last-30-days",
        "lat": 18.3514372340816,
        "lon": -105.84899687918355,
        "alt_km": 514.6032398003745,
        "timestamp": "2025-12-26T03:50:10.806972+00:00",
        "meta_object_name": "FLOCK 4H-28",
        "meta_object_id": "2025-276BT",
        "meta_epoch": "2025-12-25T14:27:49.974336",
        "meta_mean_motion": 15.171733,
        "meta_eccentricity": 0.0003263,
        "meta_inclination": 97.4376,
        "meta_ra_of_asc_node": 71.1205,
        "meta_arg_of_pericenter": 249.1184,
        "meta_mean_anomaly": 110.9701,
        "meta_ephemeris_type": 0,
        "meta_classification_type": "U",
        "meta_norad_cat_id": 66731,
        "meta_element_set_no": 999,
        "meta_rev_at_epoch": 407,
        "meta_bstar": 0.00051679,
        "meta_mean_motion_dot": 0.00010203,
        "meta_mean_motion_ddot": 0,
        "tle_line1": "1 66731U 25276BT  25359.60266174  .00010203  00000+0  51679-3 0  9997",
        "tle_line2": "2 66731  97.4376  71.1205 0003263 249.1184 110.9701 15.17173300  4078"
      },
      "geometry": {
        "type": "Point",
        "coordinates": [
          -105.84899687918355,
          18.3514372340816
        ]
      }
    }
  ]
}